[{"OBJECT_NAME":"GAOFEN-1 03","OBJECT_ID":"2018-031B","EPOCH":"2026-03-09T23:48:52.763904","MEAN_MOTION":14.76478861,"ECCENTRICITY":0.00036922,"INCLINATION":98.0633,"RA_OF_ASC_NODE":131.613,"ARG_OF_PERICENTER":51.6467,"MEAN_ANOMALY":308.5074,"EPHEMERIS_TYPE":0,"CLASSIFICATION_TYPE":"U","NORAD_CAT_ID":43260,"ELEMENT_SET_NO":999,"REV_AT_EPOCH":42805,"BSTAR":0.00016454166,"MEAN_MOTION_DOT":1.094e-5,"MEAN_MOTION_DDOT":0},{"OBJECT_NAME":"KUIPER-00146","OBJECT_ID":"2025-228W","EPOCH":"2026-03-09T23:12:37.486656","MEAN_MOTION":14.76495298,"ECCENTRICITY":0.00011498,"INCLINATION":51.9043,"RA_OF_ASC_NODE":341.7937,"ARG_OF_PERICENTER":114.3264,"MEAN_ANOMALY":245.7817,"EPHEMERIS_TYPE":0,"CLASSIFICATION_TYPE":"U","NORAD_CAT_ID":65967,"ELEMENT_SET_NO":999,"REV_AT_EPOCH":2351,"BSTAR":0.0005122379,"MEAN_MOTION_DOT":3.387e-5,"MEAN_MOTION_DDOT":0}]
